{
    "links": {
        "self": "http://www.neowsapp.com/rest/v1/neo/3989335?api_key=iIulBulltgU6a56xZRHN4H3l9WmuAYTsLGpBGhQ2"
    },
    "id": "3989335",
    "neo_reference_id": "3989335",
    "name": "(2020 BM14)",
    "designation": "2020 BM14",
    "nasa_jpl_url": "http://ssd.jpl.nasa.gov/sbdb.cgi?sstr=3989335",
    "absolute_magnitude_h": 23.568,
    "estimated_diameter": {
        "kilometers": {
            "estimated_diameter_min": 0.0513990363,
            "estimated_diameter_max": 0.1149317392
        },
        "meters": {
            "estimated_diameter_min": 51.3990363339,
            "estimated_diameter_max": 114.9317392207
        },
        "miles": {
            "estimated_diameter_min": 0.0319378706,
            "estimated_diameter_max": 0.0714152497
        },
        "feet": {
            "estimated_diameter_min": 168.6320143659,
            "estimated_diameter_max": 377.0726473048
        }
    },
    "is_potentially_hazardous_asteroid": false,
    "close_approach_data": [
        {
            "close_approach_date": "2003-02-16",
            "close_approach_date_full": "2003-Feb-16 01:39",
            "epoch_date_close_approach": 1045359540000,
            "relative_velocity": {
                "kilometers_per_second": "10.3646443727",
                "kilometers_per_hour": "37312.719741594",
                "miles_per_hour": "23184.6729972143"
            },
            "miss_distance": {
                "astronomical": "0.1104962",
                "lunar": "42.9830218",
                "kilometers": "16529996.163094",
                "miles": "10271263.3309372"
            },
            "orbiting_body": "Earth"
        },
        {
            "close_approach_date": "2020-02-18",
            "close_approach_date_full": "2020-Feb-18 15:59",
            "epoch_date_close_approach": 1582041540000,
            "relative_velocity": {
                "kilometers_per_second": "10.1494734999",
                "kilometers_per_hour": "36538.1045995212",
                "miles_per_hour": "22703.3572718525"
            },
            "miss_distance": {
                "astronomical": "0.1259502834",
                "lunar": "48.9946602426",
                "kilometers": "18841894.122536358",
                "miles": "11707810.1093754204"
            },
            "orbiting_body": "Earth"
        },
        {
            "close_approach_date": "2037-02-21",
            "close_approach_date_full": "2037-Feb-21 00:34",
            "epoch_date_close_approach": 2118789240000,
            "relative_velocity": {
                "kilometers_per_second": "10.6219349123",
                "kilometers_per_hour": "38238.9656841558",
                "miles_per_hour": "23760.2062052467"
            },
            "miss_distance": {
                "astronomical": "0.2117330081",
                "lunar": "82.3641401509",
                "kilometers": "31674807.020452747",
                "miles": "19681812.4247400286"
            },
            "orbiting_body": "Earth"
        },
        {
            "close_approach_date": "2054-02-24",
            "close_approach_date_full": "2054-Feb-24 23:52",
            "epoch_date_close_approach": 2655589920000,
            "relative_velocity": {
                "kilometers_per_second": "12.2210626583",
                "kilometers_per_hour": "43995.8255697292",
                "miles_per_hour": "27337.2950602575"
            },
            "miss_distance": {
                "astronomical": "0.3449807307",
                "lunar": "134.1975042423",
                "kilometers": "51608382.503763609",
                "miles": "32067961.8766874442"
            },
            "orbiting_body": "Earth"
        }
    ],
    "orbital_data": {
        "orbit_id": "5",
        "orbit_determination_date": "2020-03-01 05:06:42",
        "first_observation_date": "2020-01-28",
        "last_observation_date": "2020-02-29",
        "data_arc_in_days": 32,
        "observations_used": 37,
        "orbit_uncertainty": "6",
        "minimum_orbit_intersection": ".108894",
        "jupiter_tisserand_invariant": "4.155",
        "epoch_osculation": "2459000.5",
        "eccentricity": ".3389938341169711",
        "semi_major_axis": "1.654006458134224",
        "inclination": "17.88694865031972",
        "ascending_node_longitude": "324.6503202560139",
        "orbital_period": "776.9699605147906",
        "perihelion_distance": "1.093308467237072",
        "perihelion_argument": "190.5119376667837",
        "aphelion_distance": "2.214704449031375",
        "perihelion_time": "2458907.618551988820",
        "mean_anomaly": "43.03553931720947",
        "mean_motion": ".4633383763787698",
        "equinox": "J2000",
        "orbit_class": {
            "orbit_class_type": "AMO",
            "orbit_class_description": "Near-Earth asteroid orbits similar to that of 1221 Amor",
            "orbit_class_range": "1.017 AU < q (perihelion) < 1.3 AU"
        }
    },
    "is_sentry_object": false
}